ONEWEB-0588             
1 55153U 23004P   26014.23019915  .00000082  00000+0  17623-3 0  9992
2 55153  87.9176   6.0493 0001898 100.8770 259.2575 13.18685821149406
ONEWEB-0598             
1 55154U 23004Q   26014.11707156 -.00000363  00000+0 -10596-2 0  9996
2 55154  87.8823  51.7455 0001225 106.4950 253.6313 13.11415874145705
ONEWEB-0599             
1 55155U 23004R   26014.10229438 -.00000104  00000+0 -30165-3 0  9996
2 55155  87.9086  36.4946 0001590  90.1493 269.9820 13.17650498147196
ONEWEB-0614             
1 55156U 23004S   26014.11198967 -.00000252  00000+0 -74709-3 0  9996
2 55156  87.8820  51.7555 0002116 100.6195 259.5172 13.11414144145642
ONEWEB-0616             
1 55157U 23004T   26014.06854832 -.00000013  00000+0 -65629-4 0  9998
2 55157  87.9096  36.4961 0001658  61.0176 299.1122 13.17649883147406
ONEWEB-0617             
1 55158U 23004U   26014.10012910  .00000259  00000+0  69633-3 0  9995
2 55158  87.8824  51.7381 0002002 106.4534 253.6814 13.11414372145663
ONEWEB-0618             
1 55159U 23004V   26014.08055584  .00003153  00000+0  18517-3 0  9998
2 55159  86.9063 240.1335 0014268 137.2556 222.9796 15.11262518158976
ONEWEB-0619             
1 55160U 23004W   26014.10060638  .00000054  00000+0  10577-3 0  9994
2 55160  87.9094  36.4634 0002213  86.0589 274.0796 13.17648530147304
